IRIDIUM 144             
1 43249U 18030A   24060.68276970  .00000012  00000+0 -26606-5 0  9999
2 43249  86.3926 280.8377 0002003  89.2096 270.9329 14.34217437309956
IRIDIUM 149             
1 43250U 18030B   24061.10773213  .00000337  00000+0  11311-3 0  9995
2 43250  86.3924 280.6362 0002256  88.7311 271.4144 14.34216426310031
IRIDIUM 157             
1 43251U 18030C   24060.84767513  .00000312  00000+0  10424-3 0  9999
2 43251  86.3925 280.7799 0001926  81.9279 278.2135 14.34218436309978
IRIDIUM 140             
1 43252U 18030D   24060.65739828  .00000091  00000+0  25331-4 0  9995
2 43252  86.3926 280.8743 0002205  97.2291 262.9156 14.34218637310007
IRIDIUM 145             
1 43253U 18030E   24060.85402052  .00000136  00000+0  41612-4 0  9994
2 43253  86.3924 280.7659 0002392  91.0467 269.1003 14.34218815309966
IRIDIUM 146             
1 43254U 18030F   24060.90476465  .00000172  00000+0  54177-4 0  9990
2 43254  86.3926 280.7600 0002386  90.5215 269.6254 14.34218743309988
IRIDIUM 148             
1 43255U 18030G   24061.15212320  .00000055  00000+0  12730-4 0  9996
2 43255  86.3925 280.6868 0002318  82.4069 277.7390 14.34217589310064
IRIDIUM 142             
1 43256U 18030H   24061.12040801  .00000174  00000+0  55001-4 0  9997
2 43256  86.3922 280.6194 0002318  87.6540 272.4921 14.34218105310017
